IRIDIUM 26              
1 24903U 97043A   24179.91749781  .00000607  00000+0  20066-3 0  9999
2 24903  86.3955 259.2518 0002234 100.3584 259.7864 14.36413990405875
IRIDIUM 22              
1 24907U 97043E   24179.77231847  .00000587  00000+0  19827-3 0  9996
2 24907  86.3958 262.5587 0002210  93.9877 266.1572 14.35301882405920
IRIDIUM 29              
1 24944U 97051A   24179.84158783  .00000645  00000+0  21635-3 0  9996
2 24944  86.3954 292.4365 0002069  88.1377 272.0057 14.35750674402418
IRIDIUM 33              
1 24946U 97051C   24179.80859888  .00000530  00000+0  18148-3 0  9996
2 24946  86.3869 291.7008 0009140 143.2992 216.8831 14.34399514401937
IRIDIUM 28              
1 24948U 97051E   24179.83842687  .00000681  00000+0  22459-3 0  9997
2 24948  86.3960 290.1546 0002326 104.3172 255.8284 14.36704786402959
